STARLINK-30899          
1 58420U 23180U   26068.38888234  .00001297  00000+0  56666-4 0  9990
2 58420  43.0007  53.9313 0001219 272.5860  87.4852 15.27566389127468
REAL                    
1 64875U 25154G   26068.72233414  .00022901  00000+0  82904-3 0  9994
2 64875  97.4133 137.2581 0001853 118.5876 241.5550 15.28408058 34830
